STARLINK-34126          
1 64083U 25107V   26068.40115591  .00025398  00000+0  92824-3 0  9998
2 64083  42.9998 203.4065 0001550 276.3985  83.6690 15.27616604 44980
REAL                    
1 64875U 25154G   26068.72233414  .00022901  00000+0  82904-3 0  9994
2 64875  97.4133 137.2581 0001853 118.5876 241.5550 15.28408058 34830
